SatCatId,ObjectName,LaunchYear,OrbitalPeriod,LaunchMass,StatusCode,Inclination,Status,UcsData,OrbitClassEstimated,LaunchSiteCountry,Owner,UseType,Purpose,LaunchVehicleClass,TLE1,TLE2,MeanMotion,Eccentricity,OrbitClass
53935,STARLINK-5000,2022,94.67,-1.0,+,53.21,Active,0,LEO,USA,USA,Unknown,Unknown,Falcon,1 53935U 22119BB  23043.58334491 -.00901184  00000+0 -42921-1 0  9992,2 53935  53.2074 282.0346 0001324  83.1383 336.0900 15.21251567  1309,15.21251567,0.0001324,LEO
53936,STARLINK-4791,2022,95.44,-1.0,+,53.22,Active,0,LEO,USA,USA,Unknown,Unknown,Falcon,1 53936U 22119BC  23043.08168156 -.00002094  00000+0 -11346-3 0  9992,2 53936  53.2172 293.9887 0001193  60.4389 299.6722 15.08848549 22720,15.08848549,0.0001193,LEO
53937,STARLINK-4765,2022,95.44,-1.0,+,53.22,Active,0,LEO,USA,USA,Unknown,Unknown,Falcon,1 53937U 22119BD  23043.37474140 -.00002170  00000+0 -11825-3 0  9995,2 53937  53.2167 287.9864 0001426  85.6069 274.5086 15.08842680 22822,15.0884268,0.0001426,LEO
53943,YAOGAN-36 01A,2022,94.49,-1.0,+,35.0,Active,0,LEO,PRC,China,Unknown,Unknown,Long March,1 53943U 22120A   23043.10812794  .00021859  00000+0  87820-3 0  9997,2 53943  34.9994  33.7260 0004274 136.6680 288.1364 15.24048134 21144,15.24048134,0.0004274,LEO
53946,YAOGAN-36 01B,2022,94.49,-1.0,+,35.0,Active,0,LEO,PRC,China,Unknown,Unknown,Long March,1 53946U 22120D   23043.38633714  .00037811  00000+0  15194-2 0  9992,2 53946  34.9996  31.9792 0003764 107.5934  43.6435 15.23946923 21146,15.23946923,0.0003764,LEO
53947,YAOGAN-36 01C,2022,94.49,-1.0,+,35.0,Active,0,LEO,PRC,China,Unknown,Unknown,Long March,1 53947U 22120E   23043.44602315  .00028501  00000+0  11479-2 0  9991,2 53947  34.9989  31.5629 0006654 163.4508 332.9315 15.23911202 21191,15.23911202,0.0006654,LEO
53948,OBJECT A,2022,94.73,-1.0,+,97.44,Active,0,LEO,PRC,China,Unknown,Unknown,Unknown,1 53948U 22121A   23043.55519559  .00016700  00000+0  77270-3 0  9992,2 53948  97.4431  67.1640 0013669 139.2320  12.0431 15.20126176 21036,15.20126176,0.0013669,LEO
53949,OBJECT B,2022,94.76,-1.0,+,97.44,Active,0,LEO,PRC,China,Unknown,Unknown,Unknown,1 53949U 22121B   23043.55931837  .00010149  00000+0  47748-3 0  9998,2 53949  97.4426  67.1320 0012449 143.0630  16.9911 15.19686903 21031,15.19686903,0.0012449,LEO
53950,OBJECT C,2022,94.75,-1.0,+,97.44,Active,0,LEO,PRC,China,Unknown,Unknown,Unknown,1 53950U 22121C   23043.54041078  .00009010  00000+0  42257-3 0  9993,2 53950  97.4448  67.2044 0014032 149.9306   2.5249 15.19810544 21031,15.19810544,0.0014032,LEO
53951,SELFIESAT,2022,94.96,-1.0,+,97.53,Active,0,LEO,USA,Norway,Unknown,Unknown,Falcon,1 53951U 22057BA  23043.58394455  .00026982  00000+0  13832-2 0  9999,2 53951  97.5308 160.4225 0010202  55.7000 304.5197 15.16489124 39764,15.16489124,0.0010202,LEO
53960,SES-20,2022,1436.07,-1.0,+,0.04,Active,0,GSO,USA,SES,Unknown,Unknown,Atlas,1 53960U 22123A   23041.65653684 -.00000089  00000+0  00000+0 0  9992,2 53960   0.0418 127.2307 0001352 200.0127 306.4759  1.00273334  1281,1.00273334,0.0001352,GEO
53961,SES-21,2022,1436.09,-1.0,+,0.02,Active,0,GSO,USA,SES,Unknown,Unknown,Atlas,1 53961U 22123B   23042.29903892  .00000082  00000+0  00000+0 0  9995,2 53961   0.0216  71.2597 0001134 250.9267 155.5219  1.00272522  1310,1.00272522,0.0001134,GEO
53964,STARLINK-4633,2022,95.44,-1.0,+,53.22,Active,0,LEO,USA,USA,Unknown,Unknown,Falcon,1 53964U 22125A   23043.20359591  .00009206  00000+0  59574-3 0  9994,2 53964  53.2153 218.8217 0001201  91.4548 268.6582 15.08839749 20016,15.08839749,0.0001201,LEO
53965,STARLINK-4578,2022,95.46,-1.0,+,53.21,Active,0,LEO,USA,USA,Unknown,Unknown,Falcon,1 53965U 22125B   23043.58334491  .00474322  00000+0  28536-1 0  9995,2 53965  53.2141 217.0887 0001341  93.7357 185.5245 15.08361668 20132,15.08361668,0.0001341,LEO
53966,STARLINK-4635,2022,95.44,-1.0,+,53.22,Active,0,LEO,USA,USA,Unknown,Unknown,Falcon,1 53966U 22125C   23043.26246357  .00001099  00000+0  87102-4 0  9998,2 53966  53.2154 218.4812 0001206  84.5359 275.5771 15.08839297 20020,15.08839297,0.0001206,LEO
53967,STARLINK-4634,2022,95.44,-1.0,+,53.21,Active,0,LEO,USA,USA,Unknown,Unknown,Falcon,1 53967U 22125D   23043.25877982  .00002358  00000+0  16619-3 0  9995,2 53967  53.2137 218.4554 0001067  89.4645 270.6470 15.08843721 20021,15.08843721,0.0001067,LEO
53968,STARLINK-4629,2022,95.44,-1.0,+,53.22,Active,0,LEO,USA,USA,Unknown,Unknown,Falcon,1 53968U 22125E   23042.91652021  .00002264  00000+0  16028-3 0  9993,2 53968  53.2163 219.8733 0001032  93.9055 266.2055 15.08844602 19973,15.08844602,0.0001032,LEO
53969,STARLINK-4468,2022,95.44,-1.0,+,53.22,Active,0,LEO,USA,USA,Unknown,Unknown,Falcon,1 53969U 22125F   23043.52005472  .00000593  00000+0  55324-4 0  9990,2 53969  53.2155 217.2436 0001064  85.4043 274.7070 15.08841905 20061,15.08841905,0.0001064,LEO
53970,STARLINK-4567,2022,95.44,-1.0,+,53.22,Active,0,LEO,USA,USA,Unknown,Unknown,Falcon,1 53970U 22125G   23043.49023701 -.00001029  00000+0 -46602-4 0  9999,2 53970  53.2169 212.7717 0001267  93.2365 266.8772 15.08831812 20123,15.08831812,0.0001267,LEO
53971,STARLINK-4639,2022,95.44,-1.0,+,53.22,Active,0,LEO,USA,USA,Unknown,Unknown,Falcon,1 53971U 22125H   23043.51636977 -.00000257  00000+0  19180-5 0  9991,2 53971  53.2154 217.2193 0001332  72.4671 287.6467 15.08836686 20067,15.08836686,0.0001332,LEO
53972,STARLINK-5157,2022,95.44,-1.0,+,53.22,Active,0,LEO,USA,USA,Unknown,Unknown,Falcon,1 53972U 22125J   23043.53437274  .00001718  00000+0  12602-3 0  9995,2 53972  53.2155 212.3385 0001143  84.1877 275.9245 15.08838495 20138,15.08838495,0.0001143,LEO
53973,STARLINK-5156,2022,95.44,-1.0,+,53.22,Active,0,LEO,USA,USA,Unknown,Unknown,Falcon,1 53973U 22125K   23043.57523757  .00011175  00000+0  71896-3 0  9990,2 53973  53.2163 216.8777 0000988  85.0045 275.1060 15.08846959 20079,15.08846959,9.88e-05,LEO
53974,STARLINK-5159,2022,95.44,-1.0,+,53.22,Active,0,LEO,USA,USA,Unknown,Unknown,Falcon,1 53974U 22125L   23043.54392675  .00002013  00000+0  14454-3 0  9999,2 53974  53.2182 196.7345 0001371  92.8965 267.2184 15.08839945 20359,15.08839945,0.0001371,LEO
53975,STARLINK-5137,2022,95.44,-1.0,+,53.22,Active,0,LEO,USA,USA,Unknown,Unknown,Falcon,1 53975U 22125M   23043.47918476  .00009072  00000+0  58688-3 0  9994,2 53975  53.2159 212.7032 0001471  64.0155 296.0989 15.08868043 20128,15.08868043,0.0001471,LEO
53976,STARLINK-5134,2022,95.44,-1.0,+,53.22,Active,0,LEO,USA,USA,Unknown,Unknown,Falcon,1 53976U 22125N   23043.49338314  .00006851  00000+0  44806-3 0  9993,2 53976  53.2166 197.1381 0001292 101.0503 259.0634 15.08842493 20341,15.08842493,0.0001292,LEO
53977,STARLINK-5094,2022,95.44,-1.0,+,53.22,Active,0,LEO,USA,USA,Unknown,Unknown,Falcon,1 53977U 22125P   23043.46076262  .00001131  00000+0  89132-4 0  9990,2 53977  53.2167 212.5933 0001254  86.2586 273.8549 15.08839106 20123,15.08839106,0.0001254,LEO
53978,STARLINK-5148,2022,95.44,-1.0,+,53.22,Active,0,LEO,USA,USA,Unknown,Unknown,Falcon,1 53978U 22125Q   23043.17738016  .00000964  00000+0  78668-4 0  9996,2 53978  53.2151 213.6727 0001036  85.0030 275.1081 15.08838807 20087,15.08838807,0.0001036,LEO
53979,STARLINK-5123,2022,95.44,-1.0,+,53.22,Active,0,LEO,USA,USA,Unknown,Unknown,Falcon,1 53979U 22125R   23043.51595183  .00001369  00000+0  10412-3 0  9993,2 53979  53.2162 212.2270 0001135  82.8270 277.2851 15.08836723 20138,15.08836723,0.0001135,LEO
53980,STARLINK-5133,2022,95.44,-1.0,+,53.21,Active,0,LEO,USA,USA,Unknown,Unknown,Falcon,1 53980U 22125S   23043.56376182  .00001299  00000+0  99677-4 0  9999,2 53980  53.2143 211.8218 0001031 102.9042 257.2065 15.08841072 20141,15.08841072,0.0001031,LEO
53981,STARLINK-5149,2022,95.44,-1.0,+,53.22,Active,0,LEO,USA,USA,Unknown,Unknown,Falcon,1 53981U 22125T   23043.55866732  .00002297  00000+0  16234-3 0  9990,2 53981  53.2169 196.8456 0001364  88.0295 272.0854 15.08841408 20356,15.08841408,0.0001364,LEO
53982,STARLINK-5120,2022,95.44,-1.0,+,53.21,Active,0,LEO,USA,USA,Unknown,Unknown,Falcon,1 53982U 22125U   23043.52097861 -.00000536  00000+0 -15611-4 0  9992,2 53982  53.2137 207.2786 0001024  94.6614 265.4495 15.08836691 20193,15.08836691,0.0001024,LEO
53983,STARLINK-5103,2022,95.44,-1.0,+,53.22,Active,0,LEO,USA,USA,Unknown,Unknown,Falcon,1 53983U 22125V   23043.56603549 -.00000310  00000+0 -14079-5 0  9991,2 53983  53.2175 196.8664 0001280  79.4890 280.6246 15.08836532 20350,15.08836532,0.000128,LEO
53984,STARLINK-5142,2022,95.44,-1.0,+,53.22,Active,0,LEO,USA,USA,Unknown,Unknown,Falcon,1 53984U 22125W   23043.46579442 -.00000179  00000+0  68426-5 0  9992,2 53984  53.2159 207.6429 0001092  97.7818 262.3299 15.08837295 20191,15.08837295,0.0001092,LEO
53985,STARLINK-5147,2022,95.44,-1.0,+,53.22,Active,0,LEO,USA,USA,Unknown,Unknown,Falcon,1 53985U 22125X   23043.47316443  .00001214  00000+0  94377-4 0  9997,2 53985  53.2169 207.6822 0000967  91.9739 268.1364 15.08830936 20190,15.08830936,9.67e-05,LEO
53986,STARLINK-5119,2022,95.44,-1.0,+,53.22,Active,0,LEO,USA,USA,Unknown,Unknown,Falcon,1 53986U 22125Y   23043.41881648  .00002182  00000+0  15513-3 0  9995,2 53986  53.2176 197.3761 0001101  89.0147 271.0971 15.08837734 20323,15.08837734,0.0001101,LEO
53987,STARLINK-5112,2022,95.44,-1.0,+,53.22,Active,0,LEO,USA,USA,Unknown,Unknown,Falcon,1 53987U 22125Z   23043.53571861 -.00000394  00000+0 -66811-5 0  9996,2 53987  53.2153 207.3645 0001061  84.3850 275.7263 15.08838448 20201,15.08838448,0.0001061,LEO
53988,STARLINK-5113,2022,95.44,-1.0,+,53.21,Active,0,LEO,USA,USA,Unknown,Unknown,Falcon,1 53988U 22125AA  23043.52835076 -.00000995  00000+0 -44434-4 0  9990,2 53988  53.2143 207.3262 0001051  80.5136 279.5974 15.08836294 20196,15.08836294,0.0001051,LEO
53989,STARLINK-5115,2022,95.44,-1.0,+,53.22,Active,0,LEO,USA,USA,Unknown,Unknown,Falcon,1 53989U 22125AB  23043.45201416 -.00000053  00000+0  14771-4 0  9993,2 53989  53.2176 207.5548 0001161  91.0489 269.0636 15.08838387 20196,15.08838387,0.0001161,LEO
